{
  "type": "Feature",
  "properties": {
    "name": "Taipei 20 km radius circular flight",
    "center": [
      121.5654,
      25.033
    ],
    "radius_m": 20000,
    "direction": "clockwise",
    "description": "Closed circle around central Taipei, starting north of the city. Camera altitude is set with python-fly.py --altitude."
  },
  "geometry": {
    "type": "LineString",
    "coordinates": [
      [
        121.5654,
        25.2128641
      ],
      [
        121.5688696,
        25.2128366
      ],
      [
        121.5723381,
        25.2127543
      ],
      [
        121.5758046,
        25.2126172
      ],
      [
        121.5792678,
        25.2124253
      ],
      [
        121.5827268,
        25.2121786
      ],
      [
        121.5861805,
        25.2118773
      ],
      [
        121.5896278,
        25.2115214
      ],
      [
        121.5930677,
        25.2111111
      ],
      [
        121.5964992,
        25.2106464
      ],
      [
        121.5999211,
        25.2101275
      ],
      [
        121.6033325,
        25.2095546
      ],
      [
        121.6067322,
        25.2089279
      ],
      [
        121.6101194,
        25.2082475
      ],
      [
        121.6134928,
        25.2075136
      ],
      [
        121.6168515,
        25.2067265
      ],
      [
        121.6201945,
        25.2058864
      ],
      [
        121.6235208,
        25.2049936
      ],
      [
        121.6268292,
        25.2040483
      ],
      [
        121.6301189,
        25.2030508
      ],
      [
        121.6333888,
        25.2020015
      ],
      [
        121.6366378,
        25.2009006
      ],
      [
        121.6398651,
        25.1997485
      ],
      [
        121.6430696,
        25.1985456
      ],
      [
        121.6462504,
        25.1972921
      ],
      [
        121.6494064,
        25.1959886
      ],
      [
        121.6525367,
        25.1946353
      ],
      [
        121.6556404,
        25.1932328
      ],
      [
        121.6587165,
        25.1917814
      ],
      [
        121.661764,
        25.1902816
      ],
      [
        121.6647821,
        25.1887338
      ],
      [
        121.6677698,
        25.1871385
      ],
      [
        121.6707262,
        25.1854962
      ],
      [
        121.6736504,
        25.1838075
      ],
      [
        121.6765415,
        25.1820727
      ],
      [
        121.6793986,
        25.1802925
      ],
      [
        121.6822208,
        25.1784674
      ],
      [
        121.6850074,
        25.1765979
      ],
      [
        121.6877574,
        25.1746847
      ],
      [
        121.69047,
        25.1727283
      ],
      [
        121.6931443,
        25.1707292
      ],
      [
        121.6957797,
        25.1686882
      ],
      [
        121.6983751,
        25.1666059
      ],
      [
        121.70093,
        25.1644828
      ],
      [
        121.7034434,
        25.1623196
      ],
      [
        121.7059146,
        25.160117
      ],
      [
        121.7083429,
        25.1578757
      ],
      [
        121.7107275,
        25.1555963
      ],
      [
        121.7130677,
        25.1532796
      ],
      [
        121.7153628,
        25.1509262
      ],
      [
        121.7176121,
        25.1485368
      ],
      [
        121.7198149,
        25.1461123
      ],
      [
        121.7219706,
        25.1436533
      ],
      [
        121.7240784,
        25.1411606
      ],
      [
        121.7261377,
        25.138635
      ],
      [
        121.728148,
        25.1360771
      ],
      [
        121.7301085,
        25.1334879
      ],
      [
        121.7320188,
        25.1308681
      ],
      [
        121.7338782,
        25.1282184
      ],
      [
        121.7356861,
        25.1255398
      ],
      [
        121.7374421,
        25.122833
      ],
      [
        121.7391455,
        25.1200988
      ],
      [
        121.7407959,
        25.1173381
      ],
      [
        121.7423928,
        25.1145517
      ],
      [
        121.7439356,
        25.1117405
      ],
      [
        121.745424,
        25.1089054
      ],
      [
        121.7468574,
        25.1060471
      ],
      [
        121.7482354,
        25.1031666
      ],
      [
        121.7495577,
        25.1002648
      ],
      [
        121.7508237,
        25.0973425
      ],
      [
        121.7520332,
        25.0944006
      ],
      [
        121.7531858,
        25.09144
      ],
      [
        121.7542811,
        25.0884617
      ],
      [
        121.7553187,
        25.0854665
      ],
      [
        121.7562985,
        25.0824553
      ],
      [
        121.75722,
        25.0794291
      ],
      [
        121.758083,
        25.0763888
      ],
      [
        121.7588873,
        25.0733353
      ],
      [
        121.7596325,
        25.0702696
      ],
      [
        121.7603186,
        25.0671925
      ],
      [
        121.7609452,
        25.0641051
      ],
      [
        121.7615122,
        25.0610082
      ],
      [
        121.7620195,
        25.0579029
      ],
      [
        121.7624668,
        25.05479
      ],
      [
        121.7628541,
        25.0516705
      ],
      [
        121.7631811,
        25.0485453
      ],
      [
        121.7634479,
        25.0454154
      ],
      [
        121.7636544,
        25.0422818
      ],
      [
        121.7638005,
        25.0391455
      ],
      [
        121.7638861,
        25.0360072
      ],
      [
        121.7639113,
        25.0328682
      ],
      [
        121.7638759,
        25.0297291
      ],
      [
        121.7637802,
        25.0265912
      ],
      [
        121.763624,
        25.0234552
      ],
      [
        121.7634074,
        25.0203221
      ],
      [
        121.7631306,
        25.017193
      ],
      [
        121.7627935,
        25.0140687
      ],
      [
        121.7623964,
        25.0109503
      ],
      [
        121.7619393,
        25.0078385
      ],
      [
        121.7614223,
        25.0047345
      ],
      [
        121.7608457,
        25.0016391
      ],
      [
        121.7602096,
        24.9985534
      ],
      [
        121.7595142,
        24.9954781
      ],
      [
        121.7587597,
        24.9924143
      ],
      [
        121.7579464,
        24.9893629
      ],
      [
        121.7570745,
        24.9863249
      ],
      [
        121.7561442,
        24.983301
      ],
      [
        121.755156,
        24.9802924
      ],
      [
        121.75411,
        24.9772998
      ],
      [
        121.7530066,
        24.9743243
      ],
      [
        121.7518462,
        24.9713666
      ],
      [
        121.750629,
        24.9684277
      ],
      [
        121.7493555,
        24.9655085
      ],
      [
        121.7480261,
        24.96261
      ],
      [
        121.7466411,
        24.9597328
      ],
      [
        121.745201,
        24.956878
      ],
      [
        121.7437063,
        24.9540464
      ],
      [
        121.7421573,
        24.9512389
      ],
      [
        121.7405546,
        24.9484563
      ],
      [
        121.7388987,
        24.9456995
      ],
      [
        121.73719,
        24.9429693
      ],
      [
        121.7354292,
        24.9402665
      ],
      [
        121.7336166,
        24.9375919
      ],
      [
        121.7317529,
        24.9349465
      ],
      [
        121.7298387,
        24.9323309
      ],
      [
        121.7278745,
        24.9297459
      ],
      [
        121.7258609,
        24.9271924
      ],
      [
        121.7237986,
        24.9246712
      ],
      [
        121.7216882,
        24.9221829
      ],
      [
        121.7195303,
        24.9197284
      ],
      [
        121.7173255,
        24.9173084
      ],
      [
        121.7150746,
        24.9149236
      ],
      [
        121.7127783,
        24.9125748
      ],
      [
        121.7104372,
        24.9102627
      ],
      [
        121.708052,
        24.9079879
      ],
      [
        121.7056236,
        24.9057511
      ],
      [
        121.7031525,
        24.9035532
      ],
      [
        121.7006396,
        24.9013946
      ],
      [
        121.6980857,
        24.8992761
      ],
      [
        121.6954915,
        24.8971983
      ],
      [
        121.6928577,
        24.8951618
      ],
      [
        121.6901853,
        24.8931673
      ],
      [
        121.687475,
        24.8912153
      ],
      [
        121.6847276,
        24.8893066
      ],
      [
        121.6819441,
        24.8874415
      ],
      [
        121.6791251,
        24.8856207
      ],
      [
        121.6762716,
        24.8838448
      ],
      [
        121.6733845,
        24.8821143
      ],
      [
        121.6704646,
        24.8804297
      ],
      [
        121.6675128,
        24.8787915
      ],
      [
        121.6645301,
        24.8772003
      ],
      [
        121.6615172,
        24.8756564
      ],
      [
        121.6584752,
        24.8741605
      ],
      [
        121.6554049,
        24.8727129
      ],
      [
        121.6523074,
        24.871314
      ],
      [
        121.6491834,
        24.8699643
      ],
      [
        121.6460341,
        24.8686643
      ],
      [
        121.6428603,
        24.8674142
      ],
      [
        121.6396629,
        24.8662145
      ],
      [
        121.6364431,
        24.8650655
      ],
      [
        121.6332017,
        24.8639677
      ],
      [
        121.6299397,
        24.8629213
      ],
      [
        121.6266582,
        24.8619266
      ],
      [
        121.623358,
        24.8609839
      ],
      [
        121.6200403,
        24.8600936
      ],
      [
        121.616706,
        24.8592558
      ],
      [
        121.6133562,
        24.858471
      ],
      [
        121.6099918,
        24.8577392
      ],
      [
        121.6066139,
        24.8570607
      ],
      [
        121.6032234,
        24.8564358
      ],
      [
        121.5998216,
        24.8558645
      ],
      [
        121.5964092,
        24.8553471
      ],
      [
        121.5929875,
        24.8548838
      ],
      [
        121.5895574,
        24.8544747
      ],
      [
        121.5861199,
        24.8541198
      ],
      [
        121.5826762,
        24.8538194
      ],
      [
        121.5792273,
        24.8535734
      ],
      [
        121.5757741,
        24.8533821
      ],
      [
        121.5723178,
        24.8532453
      ],
      [
        121.5688594,
        24.8531633
      ],
      [
        121.5654,
        24.8531359
      ],
      [
        121.5619406,
        24.8531633
      ],
      [
        121.5584822,
        24.8532453
      ],
      [
        121.5550259,
        24.8533821
      ],
      [
        121.5515727,
        24.8535734
      ],
      [
        121.5481238,
        24.8538194
      ],
      [
        121.5446801,
        24.8541198
      ],
      [
        121.5412426,
        24.8544747
      ],
      [
        121.5378125,
        24.8548838
      ],
      [
        121.5343908,
        24.8553471
      ],
      [
        121.5309784,
        24.8558645
      ],
      [
        121.5275766,
        24.8564358
      ],
      [
        121.5241861,
        24.8570607
      ],
      [
        121.5208082,
        24.8577392
      ],
      [
        121.5174438,
        24.858471
      ],
      [
        121.514094,
        24.8592558
      ],
      [
        121.5107597,
        24.8600936
      ],
      [
        121.507442,
        24.8609839
      ],
      [
        121.5041418,
        24.8619266
      ],
      [
        121.5008603,
        24.8629213
      ],
      [
        121.4975983,
        24.8639677
      ],
      [
        121.4943569,
        24.8650655
      ],
      [
        121.4911371,
        24.8662145
      ],
      [
        121.4879397,
        24.8674142
      ],
      [
        121.4847659,
        24.8686643
      ],
      [
        121.4816166,
        24.8699643
      ],
      [
        121.4784926,
        24.871314
      ],
      [
        121.4753951,
        24.8727129
      ],
      [
        121.4723248,
        24.8741605
      ],
      [
        121.4692828,
        24.8756564
      ],
      [
        121.4662699,
        24.8772003
      ],
      [
        121.4632872,
        24.8787915
      ],
      [
        121.4603354,
        24.8804297
      ],
      [
        121.4574155,
        24.8821143
      ],
      [
        121.4545284,
        24.8838448
      ],
      [
        121.4516749,
        24.8856207
      ],
      [
        121.4488559,
        24.8874415
      ],
      [
        121.4460724,
        24.8893066
      ],
      [
        121.443325,
        24.8912153
      ],
      [
        121.4406147,
        24.8931673
      ],
      [
        121.4379423,
        24.8951618
      ],
      [
        121.4353085,
        24.8971983
      ],
      [
        121.4327143,
        24.8992761
      ],
      [
        121.4301604,
        24.9013946
      ],
      [
        121.4276475,
        24.9035532
      ],
      [
        121.4251764,
        24.9057511
      ],
      [
        121.422748,
        24.9079879
      ],
      [
        121.4203628,
        24.9102627
      ],
      [
        121.4180217,
        24.9125748
      ],
      [
        121.4157254,
        24.9149236
      ],
      [
        121.4134745,
        24.9173084
      ],
      [
        121.4112697,
        24.9197284
      ],
      [
        121.4091118,
        24.9221829
      ],
      [
        121.4070014,
        24.9246712
      ],
      [
        121.4049391,
        24.9271924
      ],
      [
        121.4029255,
        24.9297459
      ],
      [
        121.4009613,
        24.9323309
      ],
      [
        121.3990471,
        24.9349465
      ],
      [
        121.3971834,
        24.9375919
      ],
      [
        121.3953708,
        24.9402665
      ],
      [
        121.39361,
        24.9429693
      ],
      [
        121.3919013,
        24.9456995
      ],
      [
        121.3902454,
        24.9484563
      ],
      [
        121.3886427,
        24.9512389
      ],
      [
        121.3870937,
        24.9540464
      ],
      [
        121.385599,
        24.956878
      ],
      [
        121.3841589,
        24.9597328
      ],
      [
        121.3827739,
        24.96261
      ],
      [
        121.3814445,
        24.9655085
      ],
      [
        121.380171,
        24.9684277
      ],
      [
        121.3789538,
        24.9713666
      ],
      [
        121.3777934,
        24.9743243
      ],
      [
        121.37669,
        24.9772998
      ],
      [
        121.375644,
        24.9802924
      ],
      [
        121.3746558,
        24.983301
      ],
      [
        121.3737255,
        24.9863249
      ],
      [
        121.3728536,
        24.9893629
      ],
      [
        121.3720403,
        24.9924143
      ],
      [
        121.3712858,
        24.9954781
      ],
      [
        121.3705904,
        24.9985534
      ],
      [
        121.3699543,
        25.0016391
      ],
      [
        121.3693777,
        25.0047345
      ],
      [
        121.3688607,
        25.0078385
      ],
      [
        121.3684036,
        25.0109503
      ],
      [
        121.3680065,
        25.0140687
      ],
      [
        121.3676694,
        25.017193
      ],
      [
        121.3673926,
        25.0203221
      ],
      [
        121.367176,
        25.0234552
      ],
      [
        121.3670198,
        25.0265912
      ],
      [
        121.3669241,
        25.0297291
      ],
      [
        121.3668887,
        25.0328682
      ],
      [
        121.3669139,
        25.0360072
      ],
      [
        121.3669995,
        25.0391455
      ],
      [
        121.3671456,
        25.0422818
      ],
      [
        121.3673521,
        25.0454154
      ],
      [
        121.3676189,
        25.0485453
      ],
      [
        121.3679459,
        25.0516705
      ],
      [
        121.3683332,
        25.05479
      ],
      [
        121.3687805,
        25.0579029
      ],
      [
        121.3692878,
        25.0610082
      ],
      [
        121.3698548,
        25.0641051
      ],
      [
        121.3704814,
        25.0671925
      ],
      [
        121.3711675,
        25.0702696
      ],
      [
        121.3719127,
        25.0733353
      ],
      [
        121.372717,
        25.0763888
      ],
      [
        121.37358,
        25.0794291
      ],
      [
        121.3745015,
        25.0824553
      ],
      [
        121.3754813,
        25.0854665
      ],
      [
        121.3765189,
        25.0884617
      ],
      [
        121.3776142,
        25.09144
      ],
      [
        121.3787668,
        25.0944006
      ],
      [
        121.3799763,
        25.0973425
      ],
      [
        121.3812423,
        25.1002648
      ],
      [
        121.3825646,
        25.1031666
      ],
      [
        121.3839426,
        25.1060471
      ],
      [
        121.385376,
        25.1089054
      ],
      [
        121.3868644,
        25.1117405
      ],
      [
        121.3884072,
        25.1145517
      ],
      [
        121.3900041,
        25.1173381
      ],
      [
        121.3916545,
        25.1200988
      ],
      [
        121.3933579,
        25.122833
      ],
      [
        121.3951139,
        25.1255398
      ],
      [
        121.3969218,
        25.1282184
      ],
      [
        121.3987812,
        25.1308681
      ],
      [
        121.4006915,
        25.1334879
      ],
      [
        121.402652,
        25.1360771
      ],
      [
        121.4046623,
        25.138635
      ],
      [
        121.4067216,
        25.1411606
      ],
      [
        121.4088294,
        25.1436533
      ],
      [
        121.4109851,
        25.1461123
      ],
      [
        121.4131879,
        25.1485368
      ],
      [
        121.4154372,
        25.1509262
      ],
      [
        121.4177323,
        25.1532796
      ],
      [
        121.4200725,
        25.1555963
      ],
      [
        121.4224571,
        25.1578757
      ],
      [
        121.4248854,
        25.160117
      ],
      [
        121.4273566,
        25.1623196
      ],
      [
        121.42987,
        25.1644828
      ],
      [
        121.4324249,
        25.1666059
      ],
      [
        121.4350203,
        25.1686882
      ],
      [
        121.4376557,
        25.1707292
      ],
      [
        121.44033,
        25.1727283
      ],
      [
        121.4430426,
        25.1746847
      ],
      [
        121.4457926,
        25.1765979
      ],
      [
        121.4485792,
        25.1784674
      ],
      [
        121.4514014,
        25.1802925
      ],
      [
        121.4542585,
        25.1820727
      ],
      [
        121.4571496,
        25.1838075
      ],
      [
        121.4600738,
        25.1854962
      ],
      [
        121.4630302,
        25.1871385
      ],
      [
        121.4660179,
        25.1887338
      ],
      [
        121.469036,
        25.1902816
      ],
      [
        121.4720835,
        25.1917814
      ],
      [
        121.4751596,
        25.1932328
      ],
      [
        121.4782633,
        25.1946353
      ],
      [
        121.4813936,
        25.1959886
      ],
      [
        121.4845496,
        25.1972921
      ],
      [
        121.4877304,
        25.1985456
      ],
      [
        121.4909349,
        25.1997485
      ],
      [
        121.4941622,
        25.2009006
      ],
      [
        121.4974112,
        25.2020015
      ],
      [
        121.5006811,
        25.2030508
      ],
      [
        121.5039708,
        25.2040483
      ],
      [
        121.5072792,
        25.2049936
      ],
      [
        121.5106055,
        25.2058864
      ],
      [
        121.5139485,
        25.2067265
      ],
      [
        121.5173072,
        25.2075136
      ],
      [
        121.5206806,
        25.2082475
      ],
      [
        121.5240678,
        25.2089279
      ],
      [
        121.5274675,
        25.2095546
      ],
      [
        121.5308789,
        25.2101275
      ],
      [
        121.5343008,
        25.2106464
      ],
      [
        121.5377323,
        25.2111111
      ],
      [
        121.5411722,
        25.2115214
      ],
      [
        121.5446195,
        25.2118773
      ],
      [
        121.5480732,
        25.2121786
      ],
      [
        121.5515322,
        25.2124253
      ],
      [
        121.5549954,
        25.2126172
      ],
      [
        121.5584619,
        25.2127543
      ],
      [
        121.5619304,
        25.2128366
      ],
      [
        121.5654,
        25.2128641
      ]
    ]
  }
}
