{
  "type": "Feature",
  "properties": {
    "name": "New Taipei 2 km radius circular flight",
    "center": [
      121.465,
      25.012
    ],
    "radius_m": 2000,
    "direction": "clockwise",
    "description": "Closed circle centred near New Taipei City Hall in Banqiao, starting north of the centre. Omit tilt and altitude options for centre-only panning."
  },
  "geometry": {
    "type": "LineString",
    "coordinates": [
      [
        121.465,
        25.0299864
      ],
      [
        121.4653464,
        25.0299837
      ],
      [
        121.4656928,
        25.0299754
      ],
      [
        121.4660389,
        25.0299618
      ],
      [
        121.4663847,
        25.0299426
      ],
      [
        121.4667301,
        25.029918
      ],
      [
        121.467075,
        25.0298879
      ],
      [
        121.4674192,
        25.0298523
      ],
      [
        121.4677627,
        25.0298113
      ],
      [
        121.4681053,
        25.0297649
      ],
      [
        121.468447,
        25.0297131
      ],
      [
        121.4687877,
        25.0296559
      ],
      [
        121.4691272,
        25.0295933
      ],
      [
        121.4694654,
        25.0295254
      ],
      [
        121.4698023,
        25.0294521
      ],
      [
        121.4701377,
        25.0293734
      ],
      [
        121.4704716,
        25.0292895
      ],
      [
        121.4708037,
        25.0292004
      ],
      [
        121.4711341,
        25.029106
      ],
      [
        121.4714627,
        25.0290063
      ],
      [
        121.4717893,
        25.0289015
      ],
      [
        121.4721138,
        25.0287916
      ],
      [
        121.4724361,
        25.0286765
      ],
      [
        121.4727562,
        25.0285564
      ],
      [
        121.4730739,
        25.0284312
      ],
      [
        121.4733891,
        25.028301
      ],
      [
        121.4737018,
        25.0281658
      ],
      [
        121.4740119,
        25.0280257
      ],
      [
        121.4743192,
        25.0278808
      ],
      [
        121.4746236,
        25.027731
      ],
      [
        121.4749251,
        25.0275764
      ],
      [
        121.4752236,
        25.027417
      ],
      [
        121.475519,
        25.027253
      ],
      [
        121.4758112,
        25.0270843
      ],
      [
        121.4761001,
        25.026911
      ],
      [
        121.4763856,
        25.0267332
      ],
      [
        121.4766676,
        25.0265509
      ],
      [
        121.4769461,
        25.0263641
      ],
      [
        121.4772209,
        25.026173
      ],
      [
        121.477492,
        25.0259775
      ],
      [
        121.4777593,
        25.0257778
      ],
      [
        121.4780227,
        25.0255739
      ],
      [
        121.4782822,
        25.0253659
      ],
      [
        121.4785376,
        25.0251538
      ],
      [
        121.4787889,
        25.0249377
      ],
      [
        121.4790359,
        25.0247177
      ],
      [
        121.4792787,
        25.0244937
      ],
      [
        121.4795172,
        25.024266
      ],
      [
        121.4797512,
        25.0240345
      ],
      [
        121.4799807,
        25.0237994
      ],
      [
        121.4802057,
        25.0235607
      ],
      [
        121.480426,
        25.0233184
      ],
      [
        121.4806416,
        25.0230727
      ],
      [
        121.4808525,
        25.0228236
      ],
      [
        121.4810585,
        25.0225713
      ],
      [
        121.4812597,
        25.0223157
      ],
      [
        121.4814559,
        25.022057
      ],
      [
        121.481647,
        25.0217952
      ],
      [
        121.4818331,
        25.0215304
      ],
      [
        121.4820141,
        25.0212627
      ],
      [
        121.4821899,
        25.0209922
      ],
      [
        121.4823605,
        25.020719
      ],
      [
        121.4825257,
        25.0204431
      ],
      [
        121.4826856,
        25.0201646
      ],
      [
        121.4828402,
        25.0198837
      ],
      [
        121.4829893,
        25.0196003
      ],
      [
        121.4831329,
        25.0193146
      ],
      [
        121.483271,
        25.0190267
      ],
      [
        121.4834035,
        25.0187367
      ],
      [
        121.4835304,
        25.0184446
      ],
      [
        121.4836517,
        25.0181506
      ],
      [
        121.4837673,
        25.0178546
      ],
      [
        121.4838772,
        25.0175569
      ],
      [
        121.4839813,
        25.0172575
      ],
      [
        121.4840796,
        25.0169565
      ],
      [
        121.4841722,
        25.016654
      ],
      [
        121.4842589,
        25.0163501
      ],
      [
        121.4843397,
        25.0160448
      ],
      [
        121.4844146,
        25.0157383
      ],
      [
        121.4844836,
        25.0154307
      ],
      [
        121.4845467,
        25.015122
      ],
      [
        121.4846038,
        25.0148124
      ],
      [
        121.484655,
        25.0145019
      ],
      [
        121.4847002,
        25.0141907
      ],
      [
        121.4847393,
        25.0138788
      ],
      [
        121.4847725,
        25.0135663
      ],
      [
        121.4847996,
        25.0132534
      ],
      [
        121.4848207,
        25.01294
      ],
      [
        121.4848358,
        25.0126264
      ],
      [
        121.4848448,
        25.0123126
      ],
      [
        121.4848477,
        25.0119987
      ],
      [
        121.4848447,
        25.0116848
      ],
      [
        121.4848356,
        25.011371
      ],
      [
        121.4848204,
        25.0110574
      ],
      [
        121.4847992,
        25.010744
      ],
      [
        121.484772,
        25.0104311
      ],
      [
        121.4847387,
        25.0101186
      ],
      [
        121.4846994,
        25.0098067
      ],
      [
        121.4846542,
        25.0094955
      ],
      [
        121.4846029,
        25.009185
      ],
      [
        121.4845457,
        25.0088754
      ],
      [
        121.4844825,
        25.0085668
      ],
      [
        121.4844134,
        25.0082592
      ],
      [
        121.4843384,
        25.0079527
      ],
      [
        121.4842575,
        25.0076475
      ],
      [
        121.4841707,
        25.0073435
      ],
      [
        121.4840781,
        25.0070411
      ],
      [
        121.4839797,
        25.0067401
      ],
      [
        121.4838755,
        25.0064407
      ],
      [
        121.4837655,
        25.006143
      ],
      [
        121.4836498,
        25.0058471
      ],
      [
        121.4835285,
        25.0055531
      ],
      [
        121.4834015,
        25.005261
      ],
      [
        121.4832689,
        25.004971
      ],
      [
        121.4831307,
        25.0046832
      ],
      [
        121.4829871,
        25.0043975
      ],
      [
        121.4828379,
        25.0041142
      ],
      [
        121.4826833,
        25.0038333
      ],
      [
        121.4825233,
        25.0035549
      ],
      [
        121.482358,
        25.003279
      ],
      [
        121.4821874,
        25.0030058
      ],
      [
        121.4820116,
        25.0027353
      ],
      [
        121.4818305,
        25.0024677
      ],
      [
        121.4816444,
        25.002203
      ],
      [
        121.4814532,
        25.0019412
      ],
      [
        121.481257,
        25.0016825
      ],
      [
        121.4810558,
        25.001427
      ],
      [
        121.4808497,
        25.0011747
      ],
      [
        121.4806388,
        25.0009256
      ],
      [
        121.4804232,
        25.00068
      ],
      [
        121.4802028,
        25.0004378
      ],
      [
        121.4799778,
        25.0001991
      ],
      [
        121.4797483,
        24.999964
      ],
      [
        121.4795143,
        24.9997326
      ],
      [
        121.4792758,
        24.9995049
      ],
      [
        121.479033,
        24.999281
      ],
      [
        121.4787859,
        24.999061
      ],
      [
        121.4785347,
        24.998845
      ],
      [
        121.4782793,
        24.9986329
      ],
      [
        121.4780199,
        24.9984249
      ],
      [
        121.4777565,
        24.9982211
      ],
      [
        121.4774892,
        24.9980214
      ],
      [
        121.4772181,
        24.997826
      ],
      [
        121.4769433,
        24.9976349
      ],
      [
        121.4766648,
        24.9974482
      ],
      [
        121.4763828,
        24.997266
      ],
      [
        121.4760974,
        24.9970882
      ],
      [
        121.4758085,
        24.9969149
      ],
      [
        121.4755164,
        24.9967463
      ],
      [
        121.4752211,
        24.9965823
      ],
      [
        121.4749226,
        24.996423
      ],
      [
        121.4746211,
        24.9962684
      ],
      [
        121.4743167,
        24.9961187
      ],
      [
        121.4740095,
        24.9959737
      ],
      [
        121.4736995,
        24.9958337
      ],
      [
        121.4733869,
        24.9956985
      ],
      [
        121.4730717,
        24.9955684
      ],
      [
        121.4727541,
        24.9954432
      ],
      [
        121.4724341,
        24.9953231
      ],
      [
        121.4721118,
        24.9952081
      ],
      [
        121.4717874,
        24.9950982
      ],
      [
        121.4714609,
        24.9949934
      ],
      [
        121.4711324,
        24.9948938
      ],
      [
        121.4708021,
        24.9947994
      ],
      [
        121.47047,
        24.9947103
      ],
      [
        121.4701362,
        24.9946264
      ],
      [
        121.4698009,
        24.9945478
      ],
      [
        121.4694641,
        24.9944745
      ],
      [
        121.469126,
        24.9944066
      ],
      [
        121.4687866,
        24.994344
      ],
      [
        121.468446,
        24.9942868
      ],
      [
        121.4681044,
        24.994235
      ],
      [
        121.4677619,
        24.9941886
      ],
      [
        121.4674185,
        24.9941476
      ],
      [
        121.4670744,
        24.9941121
      ],
      [
        121.4667296,
        24.994082
      ],
      [
        121.4663843,
        24.9940574
      ],
      [
        121.4660386,
        24.9940382
      ],
      [
        121.4656926,
        24.9940245
      ],
      [
        121.4653463,
        24.9940163
      ],
      [
        121.465,
        24.9940136
      ],
      [
        121.4646537,
        24.9940163
      ],
      [
        121.4643074,
        24.9940245
      ],
      [
        121.4639614,
        24.9940382
      ],
      [
        121.4636157,
        24.9940574
      ],
      [
        121.4632704,
        24.994082
      ],
      [
        121.4629256,
        24.9941121
      ],
      [
        121.4625815,
        24.9941476
      ],
      [
        121.4622381,
        24.9941886
      ],
      [
        121.4618956,
        24.994235
      ],
      [
        121.461554,
        24.9942868
      ],
      [
        121.4612134,
        24.994344
      ],
      [
        121.460874,
        24.9944066
      ],
      [
        121.4605359,
        24.9944745
      ],
      [
        121.4601991,
        24.9945478
      ],
      [
        121.4598638,
        24.9946264
      ],
      [
        121.45953,
        24.9947103
      ],
      [
        121.4591979,
        24.9947994
      ],
      [
        121.4588676,
        24.9948938
      ],
      [
        121.4585391,
        24.9949934
      ],
      [
        121.4582126,
        24.9950982
      ],
      [
        121.4578882,
        24.9952081
      ],
      [
        121.4575659,
        24.9953231
      ],
      [
        121.4572459,
        24.9954432
      ],
      [
        121.4569283,
        24.9955684
      ],
      [
        121.4566131,
        24.9956985
      ],
      [
        121.4563005,
        24.9958337
      ],
      [
        121.4559905,
        24.9959737
      ],
      [
        121.4556833,
        24.9961187
      ],
      [
        121.4553789,
        24.9962684
      ],
      [
        121.4550774,
        24.996423
      ],
      [
        121.4547789,
        24.9965823
      ],
      [
        121.4544836,
        24.9967463
      ],
      [
        121.4541915,
        24.9969149
      ],
      [
        121.4539026,
        24.9970882
      ],
      [
        121.4536172,
        24.997266
      ],
      [
        121.4533352,
        24.9974482
      ],
      [
        121.4530567,
        24.9976349
      ],
      [
        121.4527819,
        24.997826
      ],
      [
        121.4525108,
        24.9980214
      ],
      [
        121.4522435,
        24.9982211
      ],
      [
        121.4519801,
        24.9984249
      ],
      [
        121.4517207,
        24.9986329
      ],
      [
        121.4514653,
        24.998845
      ],
      [
        121.4512141,
        24.999061
      ],
      [
        121.450967,
        24.999281
      ],
      [
        121.4507242,
        24.9995049
      ],
      [
        121.4504857,
        24.9997326
      ],
      [
        121.4502517,
        24.999964
      ],
      [
        121.4500222,
        25.0001991
      ],
      [
        121.4497972,
        25.0004378
      ],
      [
        121.4495768,
        25.00068
      ],
      [
        121.4493612,
        25.0009256
      ],
      [
        121.4491503,
        25.0011747
      ],
      [
        121.4489442,
        25.001427
      ],
      [
        121.448743,
        25.0016825
      ],
      [
        121.4485468,
        25.0019412
      ],
      [
        121.4483556,
        25.002203
      ],
      [
        121.4481695,
        25.0024677
      ],
      [
        121.4479884,
        25.0027353
      ],
      [
        121.4478126,
        25.0030058
      ],
      [
        121.447642,
        25.003279
      ],
      [
        121.4474767,
        25.0035549
      ],
      [
        121.4473167,
        25.0038333
      ],
      [
        121.4471621,
        25.0041142
      ],
      [
        121.4470129,
        25.0043975
      ],
      [
        121.4468693,
        25.0046832
      ],
      [
        121.4467311,
        25.004971
      ],
      [
        121.4465985,
        25.005261
      ],
      [
        121.4464715,
        25.0055531
      ],
      [
        121.4463502,
        25.0058471
      ],
      [
        121.4462345,
        25.006143
      ],
      [
        121.4461245,
        25.0064407
      ],
      [
        121.4460203,
        25.0067401
      ],
      [
        121.4459219,
        25.0070411
      ],
      [
        121.4458293,
        25.0073435
      ],
      [
        121.4457425,
        25.0076475
      ],
      [
        121.4456616,
        25.0079527
      ],
      [
        121.4455866,
        25.0082592
      ],
      [
        121.4455175,
        25.0085668
      ],
      [
        121.4454543,
        25.0088754
      ],
      [
        121.4453971,
        25.009185
      ],
      [
        121.4453458,
        25.0094955
      ],
      [
        121.4453006,
        25.0098067
      ],
      [
        121.4452613,
        25.0101186
      ],
      [
        121.445228,
        25.0104311
      ],
      [
        121.4452008,
        25.010744
      ],
      [
        121.4451796,
        25.0110574
      ],
      [
        121.4451644,
        25.011371
      ],
      [
        121.4451553,
        25.0116848
      ],
      [
        121.4451523,
        25.0119987
      ],
      [
        121.4451552,
        25.0123126
      ],
      [
        121.4451642,
        25.0126264
      ],
      [
        121.4451793,
        25.01294
      ],
      [
        121.4452004,
        25.0132534
      ],
      [
        121.4452275,
        25.0135663
      ],
      [
        121.4452607,
        25.0138788
      ],
      [
        121.4452998,
        25.0141907
      ],
      [
        121.445345,
        25.0145019
      ],
      [
        121.4453962,
        25.0148124
      ],
      [
        121.4454533,
        25.015122
      ],
      [
        121.4455164,
        25.0154307
      ],
      [
        121.4455854,
        25.0157383
      ],
      [
        121.4456603,
        25.0160448
      ],
      [
        121.4457411,
        25.0163501
      ],
      [
        121.4458278,
        25.016654
      ],
      [
        121.4459204,
        25.0169565
      ],
      [
        121.4460187,
        25.0172575
      ],
      [
        121.4461228,
        25.0175569
      ],
      [
        121.4462327,
        25.0178546
      ],
      [
        121.4463483,
        25.0181506
      ],
      [
        121.4464696,
        25.0184446
      ],
      [
        121.4465965,
        25.0187367
      ],
      [
        121.446729,
        25.0190267
      ],
      [
        121.4468671,
        25.0193146
      ],
      [
        121.4470107,
        25.0196003
      ],
      [
        121.4471598,
        25.0198837
      ],
      [
        121.4473144,
        25.0201646
      ],
      [
        121.4474743,
        25.0204431
      ],
      [
        121.4476395,
        25.020719
      ],
      [
        121.4478101,
        25.0209922
      ],
      [
        121.4479859,
        25.0212627
      ],
      [
        121.4481669,
        25.0215304
      ],
      [
        121.448353,
        25.0217952
      ],
      [
        121.4485441,
        25.022057
      ],
      [
        121.4487403,
        25.0223157
      ],
      [
        121.4489415,
        25.0225713
      ],
      [
        121.4491475,
        25.0228236
      ],
      [
        121.4493584,
        25.0230727
      ],
      [
        121.449574,
        25.0233184
      ],
      [
        121.4497943,
        25.0235607
      ],
      [
        121.4500193,
        25.0237994
      ],
      [
        121.4502488,
        25.0240345
      ],
      [
        121.4504828,
        25.024266
      ],
      [
        121.4507213,
        25.0244937
      ],
      [
        121.4509641,
        25.0247177
      ],
      [
        121.4512111,
        25.0249377
      ],
      [
        121.4514624,
        25.0251538
      ],
      [
        121.4517178,
        25.0253659
      ],
      [
        121.4519773,
        25.0255739
      ],
      [
        121.4522407,
        25.0257778
      ],
      [
        121.452508,
        25.0259775
      ],
      [
        121.4527791,
        25.026173
      ],
      [
        121.4530539,
        25.0263641
      ],
      [
        121.4533324,
        25.0265509
      ],
      [
        121.4536144,
        25.0267332
      ],
      [
        121.4538999,
        25.026911
      ],
      [
        121.4541888,
        25.0270843
      ],
      [
        121.454481,
        25.027253
      ],
      [
        121.4547764,
        25.027417
      ],
      [
        121.4550749,
        25.0275764
      ],
      [
        121.4553764,
        25.027731
      ],
      [
        121.4556808,
        25.0278808
      ],
      [
        121.4559881,
        25.0280257
      ],
      [
        121.4562982,
        25.0281658
      ],
      [
        121.4566109,
        25.028301
      ],
      [
        121.4569261,
        25.0284312
      ],
      [
        121.4572438,
        25.0285564
      ],
      [
        121.4575639,
        25.0286765
      ],
      [
        121.4578862,
        25.0287916
      ],
      [
        121.4582107,
        25.0289015
      ],
      [
        121.4585373,
        25.0290063
      ],
      [
        121.4588659,
        25.029106
      ],
      [
        121.4591963,
        25.0292004
      ],
      [
        121.4595284,
        25.0292895
      ],
      [
        121.4598623,
        25.0293734
      ],
      [
        121.4601977,
        25.0294521
      ],
      [
        121.4605346,
        25.0295254
      ],
      [
        121.4608728,
        25.0295933
      ],
      [
        121.4612123,
        25.0296559
      ],
      [
        121.461553,
        25.0297131
      ],
      [
        121.4618947,
        25.0297649
      ],
      [
        121.4622373,
        25.0298113
      ],
      [
        121.4625808,
        25.0298523
      ],
      [
        121.462925,
        25.0298879
      ],
      [
        121.4632699,
        25.029918
      ],
      [
        121.4636153,
        25.0299426
      ],
      [
        121.4639611,
        25.0299618
      ],
      [
        121.4643072,
        25.0299754
      ],
      [
        121.4646536,
        25.0299837
      ],
      [
        121.465,
        25.0299864
      ]
    ]
  }
}
